start=new Date('2022-08-12T00:00:00.000Z').valueOf();
sats=[{"TIME_SYSTEM":"UTC","MEAN_ELEMENT_THEORY":"SGP4","NORAD_CAT_ID":"52382","INCLINATION":"53.2197","MEAN_ANOMALY":"182.3276","RA_OF_ASC_NODE":"292.4296","CLASSIFICATION_TYPE":"U","FILE":"3534319","BSTAR":"0.00181890000000","RCS_SIZE":"LARGE","PERIAPSIS":"538.648","LAUNCH_DATE":"2022-04-29","REV_AT_EPOCH":"130","ARG_OF_PERICENTER":"40.6135","SITE":"AFETR","EPHEMERIS_TYPE":"0","OBJECT_TYPE":"PAYLOAD","CENTER_NAME":"EARTH","MEAN_MOTION_DOT":"0.00028754","MEAN_MOTION":"15.08809729","TLE_LINE1":"1 52382U 22045BD  22223.58334491  .00028754  00000-0  18189-2 0  9996","EPOCH":"2022-08-11T14:00:01.000224","GP_ID":"210030529","ECCENTRICITY":"0.00017200","SEMIMAJOR_AXIS":"6917.973","OBJECT_ID":"2022-045BD","TLE_LINE2":"2 52382  53.2197 292.4296 0001720  40.6135 182.3276 15.08809729  1304","MEAN_MOTION_DDOT":"0.0000000000000","REF_FRAME":"TEME","ELEMENT_SET_NO":"999","OBJECT_NAME":"STARLINK-3799","COUNTRY_CODE":"US","APOAPSIS":"541.028","DECAY_DATE":null,"PERIOD":"95.439"},{"RCS_SIZE":"LARGE","FILE":"3534798","BSTAR":"-0.02268400000000","CLASSIFICATION_TYPE":"U","RA_OF_ASC_NODE":"283.1462","MEAN_ANOMALY":"13.6071","INCLINATION":"53.2176","NORAD_CAT_ID":"52383","MEAN_ELEMENT_THEORY":"SGP4","TIME_SYSTEM":"UTC","LAUNCH_DATE":"2022-04-29","REV_AT_EPOCH":"1890","PERIAPSIS":"424.297","MEAN_MOTION":"15.47050402","CENTER_NAME":"EARTH","OBJECT_TYPE":"PAYLOAD","MEAN_MOTION_DOT":"-0.01057994","EPHEMERIS_TYPE":"0","SITE":"AFETR","ARG_OF_PERICENTER":"36.1003","GP_ID":"210042497","EPOCH":"2022-08-11T22:00:00.999936","TLE_LINE1":"1 52383U 22045BE  22223.91667824 -.01057994  00000-0 -22684-1 0  9998","SEMIMAJOR_AXIS":"6803.497","ECCENTRICITY":"0.00015660","REF_FRAME":"TEME","MEAN_MOTION_DDOT":"0.0000000000000","TLE_LINE2":"2 52383  53.2176 283.1462 0001566  36.1003  13.6071 15.47050402 18908","OBJECT_ID":"2022-045BE","OBJECT_NAME":"STARLINK-3811","ELEMENT_SET_NO":"999","DECAY_DATE":null,"PERIOD":"93.080","APOAPSIS":"426.427","COUNTRY_CODE":"US"},{"TLE_LINE1":"1 52451U 22049A   22223.58334491 -.00016156  00000-0 -99952-3 0  9990","EPOCH":"2022-08-11T14:00:01.000224","GP_ID":"210031193","SITE":"AFETR","EPHEMERIS_TYPE":"0","ARG_OF_PERICENTER":"58.7642","MEAN_MOTION":"15.08829640","CENTER_NAME":"EARTH","OBJECT_TYPE":"PAYLOAD","MEAN_MOTION_DOT":"-0.00016156","REV_AT_EPOCH":"130","LAUNCH_DATE":"2022-05-06","PERIAPSIS":"538.390","INCLINATION":"53.2149","NORAD_CAT_ID":"52451","MEAN_ANOMALY":"264.1883","MEAN_ELEMENT_THEORY":"SGP4","TIME_SYSTEM":"UTC","RCS_SIZE":"LARGE","FILE":"3534319","BSTAR":"-0.00099952000000","RA_OF_ASC_NODE":"172.4525","CLASSIFICATION_TYPE":"U","APOAPSIS":"541.164","COUNTRY_CODE":"US","PERIOD":"95.438","DECAY_DATE":null,"ELEMENT_SET_NO":"999","OBJECT_NAME":"STARLINK-3870","OBJECT_ID":"2022-049A","MEAN_MOTION_DDOT":"0.0000000000000","REF_FRAME":"TEME","TLE_LINE2":"2 52451  53.2149 172.4525 0002005  58.7642 264.1883 15.08829640  1307","ECCENTRICITY":"0.00020050","SEMIMAJOR_AXIS":"6917.912"},{"GP_ID":"210030406","EPOCH":"2022-08-11T14:00:01.000224","TLE_LINE1":"1 52452U 22049B   22223.58334491 -.00014340  00000-0 -88475-3 0  9992","OBJECT_TYPE":"PAYLOAD","CENTER_NAME":"EARTH","MEAN_MOTION_DOT":"-0.00014340","MEAN_MOTION":"15.08833907","ARG_OF_PERICENTER":"55.3275","EPHEMERIS_TYPE":"0","SITE":"AFETR","PERIAPSIS":"537.839","REV_AT_EPOCH":"130","LAUNCH_DATE":"2022-05-06","CLASSIFICATION_TYPE":"U","RA_OF_ASC_NODE":"172.4546","BSTAR":"-0.00088475000000","FILE":"3534319","RCS_SIZE":"LARGE","MEAN_ELEMENT_THEORY":"SGP4","TIME_SYSTEM":"UTC","MEAN_ANOMALY":"142.4225","INCLINATION":"53.2166","NORAD_CAT_ID":"52452","PERIOD":"95.438","DECAY_DATE":null,"COUNTRY_CODE":"US","APOAPSIS":"541.689","OBJECT_NAME":"STARLINK-3909","ELEMENT_SET_NO":"999","TLE_LINE2":"2 52452  53.2166 172.4546 0002783  55.3275 142.4225 15.08833907  1307","REF_FRAME":"TEME","MEAN_MOTION_DDOT":"0.0000000000000","OBJECT_ID":"2022-049B","SEMIMAJOR_AXIS":"6917.899","ECCENTRICITY":"0.00027830"},{"OBJECT_NAME":"STARLINK-3872","ELEMENT_SET_NO":"999","DECAY_DATE":null,"PERIOD":"95.437","APOAPSIS":"541.125","COUNTRY_CODE":"US","SEMIMAJOR_AXIS":"6917.873","ECCENTRICITY":"0.00020040","MEAN_MOTION_DDOT":"0.0000000000000","REF_FRAME":"TEME","TLE_LINE2":"2 52453  53.2162 170.9486 0002004  57.7870 316.7661 15.08842308 15145","OBJECT_ID":"2022-049C","MEAN_MOTION":"15.08842308","MEAN_MOTION_DOT":"-0.00002893","OBJECT_TYPE":"PAYLOAD","CENTER_NAME":"EARTH","SITE":"AFETR","EPHEMERIS_TYPE":"0","ARG_OF_PERICENTER":"57.7870","GP_ID":"210041086","EPOCH":"2022-08-11T22:00:00.999936","TLE_LINE1":"1 52453U 22049C   22223.91667824 -.00002893  00000-0 -16372-3 0  9996","FILE":"3534738","RCS_SIZE":"LARGE","BSTAR":"-0.00016372000000","RA_OF_ASC_NODE":"170.9486","CLASSIFICATION_TYPE":"U","INCLINATION":"53.2162","NORAD_CAT_ID":"52453","MEAN_ANOMALY":"316.7661","MEAN_ELEMENT_THEORY":"SGP4","TIME_SYSTEM":"UTC","REV_AT_EPOCH":"1514","LAUNCH_DATE":"2022-05-06","PERIAPSIS":"538.352"},{"EPHEMERIS_TYPE":"0","SITE":"AFETR","ARG_OF_PERICENTER":"66.3851","MEAN_MOTION":"15.08871987","OBJECT_TYPE":"PAYLOAD","CENTER_NAME":"EARTH","MEAN_MOTION_DOT":"-0.00051172","TLE_LINE1":"1 52454U 22049D   22223.91667824 -.00051172  00000-0 -32171-2 0  9995","GP_ID":"210041096","EPOCH":"2022-08-11T22:00:00.999936","MEAN_ANOMALY":"288.1639","INCLINATION":"53.2171","NORAD_CAT_ID":"52454","MEAN_ELEMENT_THEORY":"SGP4","TIME_SYSTEM":"UTC","FILE":"3534738","BSTAR":"-0.00321710000000","RCS_SIZE":"LARGE","CLASSIFICATION_TYPE":"U","RA_OF_ASC_NODE":"170.9505","LAUNCH_DATE":"2022-05-06","REV_AT_EPOCH":"1514","PERIAPSIS":"538.088","ELEMENT_SET_NO":"999","OBJECT_NAME":"STARLINK-3888","APOAPSIS":"541.207","COUNTRY_CODE":"US","PERIOD":"95.436","DECAY_DATE":null,"ECCENTRICITY":"0.00022540","SEMIMAJOR_AXIS":"6917.783","OBJECT_ID":"2022-049D","REF_FRAME":"TEME","MEAN_MOTION_DDOT":"0.0000000000000","TLE_LINE2":"2 52454  53.2171 170.9505 0002254  66.3851 288.1639 15.08871987 15142"},{"OBJECT_TYPE":"PAYLOAD","CENTER_NAME":"EARTH","MEAN_MOTION_DOT":"-0.00043401","MEAN_MOTION":"15.08859016","ARG_OF_PERICENTER":"74.2576","EPHEMERIS_TYPE":"0","SITE":"AFETR","EPOCH":"2022-08-11T22:00:00.999936","GP_ID":"210040914","TLE_LINE1":"1 52455U 22049E   22223.91667824 -.00043401  00000-0 -27239-2 0  9991","CLASSIFICATION_TYPE":"U","RA_OF_ASC_NODE":"170.9488","FILE":"3534738","BSTAR":"-0.00272390000000","RCS_SIZE":"LARGE","TIME_SYSTEM":"UTC","MEAN_ELEMENT_THEORY":"SGP4","MEAN_ANOMALY":"315.0910","INCLINATION":"53.2166","NORAD_CAT_ID":"52455","PERIAPSIS":"538.449","REV_AT_EPOCH":"1514","LAUNCH_DATE":"2022-05-06","OBJECT_NAME":"STARLINK-3890","ELEMENT_SET_NO":"999","PERIOD":"95.436","DECAY_DATE":null,"COUNTRY_CODE":"US","APOAPSIS":"540.926","SEMIMAJOR_AXIS":"6917.822","ECCENTRICITY":"0.00017900","TLE_LINE2":"2 52455  53.2166 170.9488 0001790  74.2576 315.0910 15.08859016 15144","REF_FRAME":"TEME","MEAN_MOTION_DDOT":"0.0000000000000","OBJECT_ID":"2022-049E"},{"TLE_LINE1":"1 52456U 22049F   22223.91667824 -.00050535  00000-0 -31765-2 0  9997","EPOCH":"2022-08-11T22:00:00.999936","GP_ID":"210042505","SITE":"AFETR","EPHEMERIS_TYPE":"0","ARG_OF_PERICENTER":"64.0858","MEAN_MOTION":"15.08872347","MEAN_MOTION_DOT":"-0.00050535","OBJECT_TYPE":"PAYLOAD","CENTER_NAME":"EARTH","REV_AT_EPOCH":"1514","LAUNCH_DATE":"2022-05-06","PERIAPSIS":"538.060","INCLINATION":"53.2176","NORAD_CAT_ID":"52456","MEAN_ANOMALY":"345.2719","MEAN_ELEMENT_THEORY":"SGP4","TIME_SYSTEM":"UTC","FILE":"3534796","RCS_SIZE":"LARGE","BSTAR":"-0.00317650000000","RA_OF_ASC_NODE":"170.9497","CLASSIFICATION_TYPE":"U","APOAPSIS":"541.233","COUNTRY_CODE":"US","PERIOD":"95.436","DECAY_DATE":null,"ELEMENT_SET_NO":"999","OBJECT_NAME":"STARLINK-3896","OBJECT_ID":"2022-049F","MEAN_MOTION_DDOT":"0.0000000000000","REF_FRAME":"TEME","TLE_LINE2":"2 52456  53.2176 170.9497 0002294  64.0858 345.2719 15.08872347 15140","ECCENTRICITY":"0.00022940","SEMIMAJOR_AXIS":"6917.782"},{"ARG_OF_PERICENTER":"71.8248","EPHEMERIS_TYPE":"0","SITE":"AFETR","OBJECT_TYPE":"PAYLOAD","CENTER_NAME":"EARTH","MEAN_MOTION_DOT":"-0.00013379","MEAN_MOTION":"15.08827693","TLE_LINE1":"1 52457U 22049G   22223.58334491 -.00013379  00000-0 -82438-3 0  9991","GP_ID":"210031077","EPOCH":"2022-08-11T14:00:01.000224","MEAN_ELEMENT_THEORY":"SGP4","TIME_SYSTEM":"UTC","MEAN_ANOMALY":"345.9562","INCLINATION":"53.2168","NORAD_CAT_ID":"52457","CLASSIFICATION_TYPE":"U","RA_OF_ASC_NODE":"172.4455","FILE":"3534319","RCS_SIZE":"LARGE","BSTAR":"-0.00082438000000","PERIAPSIS":"538.824","LAUNCH_DATE":"2022-05-06","REV_AT_EPOCH":"130","ELEMENT_SET_NO":"999","OBJECT_NAME":"STARLINK-3899","COUNTRY_CODE":"US","APOAPSIS":"540.742","PERIOD":"95.438","DECAY_DATE":null,"ECCENTRICITY":"0.00013860","SEMIMAJOR_AXIS":"6917.918","OBJECT_ID":"2022-049G","TLE_LINE2":"2 52457  53.2168 172.4455 0001386  71.8248 345.9562 15.08827693  1303","REF_FRAME":"TEME","MEAN_MOTION_DDOT":"0.0000000000000"},{"MEAN_ANOMALY":"30.9718","NORAD_CAT_ID":"52458","INCLINATION":"53.2167","MEAN_ELEMENT_THEORY":"SGP4","TIME_SYSTEM":"UTC","FILE":"3534738","RCS_SIZE":"LARGE","BSTAR":"-0.00026581000000","CLASSIFICATION_TYPE":"U","RA_OF_ASC_NODE":"170.9490","REV_AT_EPOCH":"1514","LAUNCH_DATE":"2022-05-06","PERIAPSIS":"538.259","EPHEMERIS_TYPE":"0","SITE":"AFETR","ARG_OF_PERICENTER":"58.2858","MEAN_MOTION":"15.08854876","CENTER_NAME":"EARTH","OBJECT_TYPE":"PAYLOAD","MEAN_MOTION_DOT":"-0.00004518","TLE_LINE1":"1 52458U 22049H   22223.91667824 -.00004518  00000-0 -26581-3 0  9990","GP_ID":"210041088","EPOCH":"2022-08-11T22:00:00.999936","ECCENTRICITY":"0.00020830","SEMIMAJOR_AXIS":"6917.835","OBJECT_ID":"2022-049H","REF_FRAME":"TEME","MEAN_MOTION_DDOT":"0.0000000000000","TLE_LINE2":"2 52458  53.2167 170.9490 0002083  58.2858  30.9718 15.08854876 15140","ELEMENT_SET_NO":"999","OBJECT_NAME":"STARLINK-3898","APOAPSIS":"541.141","COUNTRY_CODE":"US","PERIOD":"95.437","DECAY_DATE":null}];
